SatCatId,ObjectName,LaunchYear,OrbitalPeriod,LaunchMass,StatusCode,Inclination,Status,UcsData,OrbitClassEstimated,LaunchSiteCountry,Owner,UseType,Purpose,LaunchVehicleClass,TLE1,TLE2,MeanMotion,Eccentricity,OrbitClass
53803,STARLINK-4727,2022,95.44,260.0,+,53.22,Active,1,LEO,USA,USA,Commercial,Communications,Falcon,1 53803U 22111AG  23275.53281324 -.00000987  00000+0 -43940-4 0  9992,2 53803  53.2172 280.7454 0001570  90.7537 269.3635 15.08842484 59793,15.08842484,0.000157,LEO
53804,STARLINK-4729,2022,95.44,260.0,+,53.22,Active,1,LEO,USA,USA,Commercial,Communications,Falcon,1 53804U 22111AH  23275.77569197 -.00001006  00000+0 -45094-4 0  9991,2 53804  53.2162 289.3952 0001491  91.0793 269.0369 15.08844074 59698,15.08844074,0.0001491,LEO
53805,STARLINK-4763,2022,95.44,260.0,+,53.21,Active,1,LEO,USA,USA,Commercial,Communications,Falcon,1 53805U 22111AJ  23276.40225481  .00003662  00000+0  24801-3 0  9998,2 53805  53.2157 276.9260 0001711  95.2249 264.8938 15.08850232 59119,15.08850232,0.0001711,LEO
53806,STARLINK-4768,2022,95.44,260.0,+,53.22,Active,1,LEO,USA,USA,Commercial,Communications,Falcon,1 53806U 22111AK  23276.17679019  .00001091  00000+0  86646-4 0  9993,2 53806  53.2159 277.6521 0001420  98.8479 261.2674 15.08835681 59086,15.08835681,0.000142,LEO
53807,BLUEWALKER 3,2022,94.61,-1.0,+,53.21,Active,0,LEO,USA,USA,Unknown,Unknown,Falcon,1 53807U 22111AL  23275.55982397  .00007671  00000+0  34475-3 0  9993,2 53807  53.2128 301.6764 0012810  29.9043 330.2684 15.22037341 58795,15.22037341,0.001281,LEO
53813,CHINASAT 1E (ZX 1E),2022,1436.12,2500.0,+,0.55,Active,1,GSO,PRC,China,Commercial,Communications,Long March,1 53813U 22112A   23275.80784964 -.00000159  00000+0  00000+0 0  9997,2 53813   0.5422 277.4383 0002685 284.1960 181.8369  1.00270164  3943,1.00270164,0.0002685,GEO
53815,STRIX-1,2022,95.71,150.0,+,97.6,Active,1,LEO,New Zealand,Japan,Commercial,Earth Observation,Electron,1 53815U 22113A   23276.42398383  .00009625  00000+0  68797-3 0  9992,2 53815  97.5959 325.7696 0009673  86.0446 274.1886 15.04643669 57416,15.04643669,0.0009673,LEO
53818,STARLINK-4749,2022,94.88,260.0,+,53.22,Active,1,LEO,USA,USA,Commercial,Communications,Falcon,1 53818U 22114A   23276.13973665 -.00003847  00000+0 -17317-3 0  9990,2 53818  53.2218 320.9958 0001899  66.9474 293.1722 15.17705746 58324,15.17705746,0.0001899,LEO
53819,STARLINK-4738,2022,95.44,260.0,+,53.22,Active,1,LEO,USA,USA,Commercial,Communications,Falcon,1 53819U 22114B   23276.17824811  .00006710  00000+0  43928-3 0  9990,2 53819  53.2176 332.9930 0001688  82.1774 277.9410 15.08841891 58157,15.08841891,0.0001688,LEO
53820,STARLINK-4758,2022,95.44,260.0,+,53.22,Active,1,LEO,USA,USA,Commercial,Communications,Falcon,1 53820U 22114C   23275.65104943 -.00001130  00000+0 -52904-4 0  9999,2 53820  53.2194 335.3905 0001681  89.0908 271.0277 15.08839706 58615,15.08839706,0.0001681,LEO
53821,STARLINK-4752,2022,95.44,260.0,+,53.22,Active,1,LEO,USA,USA,Commercial,Communications,Falcon,1 53821U 22114D   23276.19613918  .00000418  00000+0  44340-4 0  9998,2 53821  53.2163 277.5361 0001408  90.9763 269.1390 15.08837888 58930,15.08837888,0.0001408,LEO
53823,STARLINK-4748,2022,95.44,260.0,+,53.22,Active,1,LEO,USA,USA,Commercial,Communications,Falcon,1 53823U 22114F   23276.35252650  .00003342  00000+0  22796-3 0  9999,2 53823  53.2157 287.0041 0001635  88.0134 272.1045 15.08843002 58811,15.08843002,0.0001635,LEO
53824,STARLINK-4757,2022,95.44,260.0,+,53.22,Active,1,LEO,USA,USA,Commercial,Communications,Falcon,1 53824U 22114G   23276.16991293  .00000832  00000+0  70373-4 0  9998,2 53824  53.2150 332.9436 0001489  78.0942 282.0217 15.08835513 58152,15.08835513,0.0001489,LEO
53825,STARLINK-4751,2022,95.44,260.0,+,53.22,Active,1,LEO,USA,USA,Commercial,Communications,Falcon,1 53825U 22114H   23276.43855972  .00001752  00000+0  12815-3 0  9990,2 53825  53.2170 331.7748 0001415  99.7664 260.3488 15.08836423 58192,15.08836423,0.0001415,LEO
53826,STARLINK-4756,2022,95.44,260.0,+,53.22,Active,1,LEO,USA,USA,Commercial,Communications,Falcon,1 53826U 22114J   23276.42013722  .00003485  00000+0  23694-3 0  9991,2 53826  53.2176 331.6642 0001765  89.0522 271.0673 15.08845598 58192,15.08845598,0.0001765,LEO
53827,STARLINK-4764,2022,95.44,260.0,+,53.22,Active,1,LEO,USA,USA,Commercial,Communications,Falcon,1 53827U 22114K   23276.16622822  .00002068  00000+0  14802-3 0  9997,2 53827  53.2165 332.9193 0001757  88.7246 271.3947 15.08839015 58156,15.08839015,0.0001757,LEO
53828,STARLINK-4760,2022,95.44,260.0,+,53.22,Active,1,LEO,USA,USA,Commercial,Communications,Falcon,1 53828U 22114L   23276.15149822  .00005788  00000+0  38144-3 0  9998,2 53828  53.2179 332.8304 0001820  86.3450 273.7750 15.08840575 58158,15.08840575,0.000182,LEO
53829,STARLINK-4759,2022,95.44,260.0,+,53.22,Active,1,LEO,USA,USA,Commercial,Communications,Falcon,1 53829U 22114M   23276.42749808  .00007713  00000+0  50205-3 0  9991,2 53829  53.2142 331.7094 0001687 101.2260 258.8922 15.08848866 58190,15.08848866,0.0001687,LEO
53830,STARLINK-4761,2022,95.44,260.0,+,53.22,Active,1,LEO,USA,USA,Commercial,Communications,Falcon,1 53830U 22114N   23276.47532518  .00013532  00000+0  86634-3 0  9997,2 53830  53.2166 331.2986 0001726  83.6871 276.4318 15.08854343 58202,15.08854343,0.0001726,LEO
53831,STARLINK-4649,2022,95.44,260.0,+,53.22,Active,1,LEO,USA,USA,Commercial,Communications,Falcon,1 53831U 22114P   23276.42382301  .00005854  00000+0  38551-3 0  9999,2 53831  53.2158 331.6875 0001390  82.4097 277.7053 15.08850283 58196,15.08850283,0.000139,LEO
53832,STARLINK-4747,2022,95.44,260.0,+,53.22,Active,1,LEO,USA,USA,Commercial,Communications,Falcon,1 53832U 22114Q   23275.87179827  .00014813  00000+0  94700-3 0  9998,2 53832  53.2169 333.9305 0001629  77.7988 282.3187 15.08834108 58652,15.08834108,0.0001629,LEO
53833,STARLINK-4771,2022,95.44,260.0,+,53.22,Active,1,LEO,USA,USA,Commercial,Communications,Falcon,1 53833U 22114R   23276.21405105  .00004971  00000+0  33019-3 0  9999,2 53833  53.2177 332.5107 0001679  89.6106 270.5079 15.08840609 58164,15.08840609,0.0001679,LEO
53834,STARLINK-4737,2022,95.44,260.0,+,53.22,Active,1,LEO,USA,USA,Commercial,Communications,Falcon,1 53834U 22114S   23276.12938629  .00003462  00000+0  23548-3 0  9992,2 53834  53.2170 332.6933 0001580  88.0941 272.0232 15.08840715 58152,15.08840715,0.000158,LEO
53835,STARLINK-4783,2022,95.44,260.0,+,53.22,Active,1,LEO,USA,USA,Commercial,Communications,Falcon,1 53835U 22114T   23276.14044472  .00016973  00000+0  10819-2 0  9996,2 53835  53.2170 332.7618 0001524  80.3964 279.7200 15.08841566 58156,15.08841566,0.0001524,LEO
53836,STARLINK-4778,2022,95.44,260.0,+,53.22,Active,1,LEO,USA,USA,Commercial,Communications,Falcon,1 53836U 22114U   23276.44317064  .00018707  00000+0  11897-2 0  9994,2 53836  53.2162 321.8166 0001525  84.8728 275.2438 15.08859442 58339,15.08859442,0.0001525,LEO
53837,STARLINK-4776,2022,95.44,260.0,+,53.22,Active,1,LEO,USA,USA,Commercial,Communications,Falcon,1 53837U 22114V   23275.86810996  .00000158  00000+0  28010-4 0  9990,2 53837  53.2185 333.9075 0001648  92.9857 267.1324 15.08834569 58659,15.08834569,0.0001648,LEO
53838,STARLINK-4773,2022,95.44,260.0,+,53.22,Active,1,LEO,USA,USA,Commercial,Communications,Falcon,1 53838U 22114W   23276.43948656  .00016977  00000+0  10817-2 0  9990,2 53838  53.2165 321.8002 0001643  81.7241 278.3938 15.08857585 58335,15.08857585,0.0001643,LEO
53839,STARLINK-4784,2022,95.44,260.0,+,53.22,Active,1,LEO,USA,USA,Commercial,Communications,Falcon,1 53839U 22114X   23276.44684833  .00000337  00000+0  39289-4 0  9995,2 53839  53.2179 321.8455 0001578  75.9438 284.1729 15.08847840 58339,15.0884784,0.0001578,LEO
53840,STARLINK-4766,2022,95.44,260.0,+,53.22,Active,1,LEO,USA,USA,Commercial,Communications,Falcon,1 53840U 22114Y   23276.49562684  .00015036  00000+0  96026-3 0  9994,2 53840  53.2172 321.4389 0001549  88.8207 271.2963 15.08860878 58345,15.08860878,0.0001549,LEO
53841,STARLINK-4750,2022,95.44,260.0,+,53.22,Active,1,LEO,USA,USA,Commercial,Communications,Falcon,1 53841U 22114Z   23276.36956269  .00013010  00000+0  83373-3 0  9998,2 53841  53.2166 322.0762 0001693  85.8157 274.3028 15.08850620 58320,15.0885062,0.0001693,LEO
53842,STARLINK-4754,2022,95.44,260.0,+,53.22,Active,1,LEO,USA,USA,Commercial,Communications,Falcon,1 53842U 22114AA  23276.42106110  .00016847  00000+0  10737-2 0  9992,2 53842  53.2164 321.6841 0001527  87.8619 272.2548 15.08851542 58332,15.08851542,0.0001527,LEO
53843,STARLINK-4769,2022,95.44,260.0,+,53.22,Active,1,LEO,USA,USA,Commercial,Communications,Falcon,1 53843U 22114AB  23276.43211538  .00009631  00000+0  62214-3 0  9996,2 53843  53.2163 321.7527 0001556  80.9702 279.1466 15.08852658 58337,15.08852658,0.0001556,LEO
53844,STARLINK-4745,2022,95.44,260.0,+,53.22,Active,1,LEO,USA,USA,Commercial,Communications,Falcon,1 53844U 22114AC  23276.41368053  .00001616  00000+0  11956-3 0  9992,2 53844  53.2173 321.6414 0001506  93.5955 266.5210 15.08845355 58331,15.08845355,0.0001506,LEO
53845,STARLINK-4753,2022,95.44,260.0,+,53.22,Active,1,LEO,USA,USA,Commercial,Communications,Falcon,1 53845U 22114AD  23275.82859218  .00010241  00000+0  66065-3 0  9990,2 53845  53.2173 324.3996 0001644  84.8673 275.2507 15.08836985 58784,15.08836985,0.0001644,LEO
53846,STARLINK-4746,2022,95.44,260.0,+,53.22,Active,1,LEO,USA,USA,Commercial,Communications,Falcon,1 53846U 22114AE  23276.40632369  .00010744  00000+0  69190-3 0  9992,2 53846  53.2159 321.5950 0001705  86.3774 273.7413 15.08850354 58331,15.08850354,0.0001705,LEO
53847,STARLINK-4777,2022,95.44,260.0,+,53.22,Active,1,LEO,USA,USA,Commercial,Communications,Falcon,1 53847U 22114AF  23276.48361354  .00006437  00000+0  42206-3 0  9997,2 53847  53.2165 321.3639 0001498  97.2069 262.9094 15.08849348 58345,15.08849348,0.0001498,LEO
